NORAD_CAT_ID,OBJECT_NAME,OBJECT_TYPE,EPOCH,MEAN_MOTION,ECCENTRICITY,INCLINATION,RA_OF_ASC_NODE,ARG_OF_PERICENTER,MEAN_ANOMALY,BSTAR,MEAN_MOTION_DOT,MEAN_MOTION_DDOT,TLE_LINE0,TLE_LINE1,TLE_LINE2,SEMIMAJOR_AXIS,PERIOD,APOGEE,PERIGEE,DECAYED
55428.0,STARLINK-5064,PAYLOAD,2023-03-12 02:59:55,15.69925406,0.0003447,69.9979,338.8287,263.6001,96.4802,1.9823e-05,2.171e-05,0.0,0 STARLINK-5064,1 55428U 23014AP  23071.12495362  .00002171  00000-0  19823-4 0  9997,2 55428  69.9979 338.8287 0003447 263.6001  96.4802 15.69925406  6394,6737.247,91.724,361.435,356.79,0.0
55428.0,STARLINK-5064,PAYLOAD,2023-03-13 01:56:12,15.6993139,0.0003635,69.998,336.1425,257.5891,102.4898,3.1415e-05,3.567e-05,0.0,0 STARLINK-5064,1 55428U 23014AP  23072.08070075  .00003567  00000-0  31415-4 0  9994,2 55428  69.9980 336.1425 0003635 257.5891 102.4898 15.69931390  7482,6737.23,91.724,361.544,356.646,0.0
55428.0,STARLINK-5064,PAYLOAD,2023-03-14 02:24:15,15.69916619,0.0003098,69.9982,333.2765,271.4975,88.5866,-1.5954e-05,-2.13e-05,0.0,0 STARLINK-5064,1 55428U 23014AP  23073.10017396 -.00002130  00000-0 -15954-4 0  9992,2 55428  69.9982 333.2765 0003098 271.4975  88.5866 15.69916619  6700,6737.273,91.725,361.225,357.05,0.0
55428.0,STARLINK-5064,PAYLOAD,2023-03-14 16:10:00,15.69929594,0.0003542,69.9995,331.6645,252.2458,107.8351,3.4637e-05,3.955e-05,0.0,0 STARLINK-5064,1 55428U 23014AP  23073.67361589  .00003955  00000-0  34637-4 0  9993,2 55428  69.9995 331.6645 0003542 252.2458 107.8351 15.69929594  6799,6737.235,91.724,361.487,356.714,0.0
55428.0,STARLINK-5064,PAYLOAD,2023-03-15 02:52:16,15.69919246,0.0002881,69.9979,330.4055,273.387,86.6997,-2.8751e-05,-3.667e-05,0.0,0 STARLINK-5064,1 55428U 23014AP  23074.11963749 -.00003667  00000-0 -28751-4 0  9991,2 55428  69.9979 330.4055 0002881 273.3870  86.6997 15.69919246  6861,6737.265,91.724,361.071,357.189,0.0
55428.0,STARLINK-5064,PAYLOAD,2023-03-15 21:13:18,15.69924368,0.0002867,69.9998,328.2546,269.0042,91.0826,3.0869e-05,3.501e-05,0.0,0 STARLINK-5064,1 55428U 23014AP  23074.88424113  .00003501  00000-0  30869-4 0  9990,2 55428  69.9998 328.2546 0002867 269.0042  91.0826 15.69924368  7929,6737.25,91.724,361.047,357.184,0.0
55428.0,STARLINK-5064,PAYLOAD,2023-03-16 01:48:33,15.69934713,0.0003232,69.9996,327.7184,272.6117,87.4709,7.0742e-05,8.305e-05,0.0,0 STARLINK-5064,1 55428U 23014AP  23075.07538913  .00008305  00000-0  70742-4 0  9997,2 55428  69.9996 327.7184 0003232 272.6117  87.4709 15.69934713  7013,6737.221,91.724,361.263,356.908,0.0
55428.0,STARLINK-5064,PAYLOAD,2023-03-16 04:52:04,15.69910179,0.0002959,69.9994,327.3608,276.7307,83.3552,-1.0262e-06,-3.36e-06,0.0,0 STARLINK-5064,1 55428U 23014AP  23075.20282990 -.00000336  00000-0 -10262-5 0  9993,2 55428  69.9994 327.3608 0002959 276.7307  83.3552 15.69910179  7032,6737.291,91.725,361.15,357.162,0.0
55428.0,STARLINK-5064,PAYLOAD,2023-03-16 20:09:35,15.69922555,0.0003762,69.9976,325.5689,260.68,99.3971,4.8488e-05,5.621e-05,0.0,0 STARLINK-5064,1 55428U 23014AP  23075.83999467  .00005621  00000-0  48488-4 0  9996,2 55428  69.9976 325.5689 0003762 260.6800  99.3971 15.69922555  7138,6737.256,91.724,361.655,356.586,0.0
55428.0,STARLINK-5064,PAYLOAD,2023-03-17 02:16:35,15.69945426,0.0003591,69.9983,324.8529,258.9475,101.1317,0.00017062,0.00020371,0.0,0 STARLINK-5064,1 55428U 23014AP  23076.09485843  .00020371  00000-0  17062-3 0  9995,2 55428  69.9983 324.8529 0003591 258.9475 101.1317 15.69945426  7171,6737.19,91.723,361.474,356.636,0.0
55428.0,STARLINK-5064,PAYLOAD,2023-03-17 09:55:19,15.70018204,0.0004677,69.9991,323.9568,257.1112,102.9562,0.00031763,0.00038314,0.0,0 STARLINK-5064,1 55428U 23014AP  23076.41341505  .00038314  00000-0  31763-3 0  9997,2 55428  69.9991 323.9568 0004677 257.1112 102.9562 15.70018204  7222,6736.982,91.719,361.998,355.696,0.0
55428.0,STARLINK-5064,PAYLOAD,2023-03-18 02:44:35,15.69945526,0.0004875,69.9994,321.986,279.6617,80.4028,-7.8007e-05,-9.595e-05,0.0,0 STARLINK-5064,1 55428U 23014AP  23077.11429638 -.00009595  00000-0 -78007-4 0  9993,2 55428  69.9994 321.9860 0004875 279.6617  80.4028 15.69945526  7330,6737.19,91.723,362.339,355.77,0.0
55428.0,STARLINK-5064,PAYLOAD,2023-03-18 19:33:53,15.69888281,0.0004378,69.9985,320.0156,282.8066,77.264,-4.4377e-05,-5.539e-05,0.0,0 STARLINK-5064,1 55428U 23014AP  23077.81519982 -.00005539  00000-0 -44377-4 0  9999,2 55428  69.9985 320.0156 0004378 282.8066  77.2640 15.69888281  7440,6737.354,91.726,362.168,356.269,0.0
55428.0,STARLINK-5064,PAYLOAD,2023-03-19 03:12:39,15.6990177,0.000369,69.9983,319.1198,267.0575,93.0198,-5.9952e-05,-7.409e-05,0.0,0 STARLINK-5064,1 55428U 23014AP  23078.13378632 -.00007409  00000-0 -59952-4 0  9993,2 55428  69.9983 319.1198 0003690 267.0575  93.0198 15.69901770  7497,6737.315,91.725,361.666,356.694,0.0
55428.0,STARLINK-5064,PAYLOAD,2023-03-19 09:19:40,15.69904408,0.000355,69.9982,318.4032,269.0993,90.9796,-4.467e-05,-5.576e-05,0.0,0 STARLINK-5064,1 55428U 23014AP  23078.38865831 -.00005576  00000-0 -44670-4 0  9996,2 55428  69.9982 318.4032 0003550 269.0993  90.9796 15.69904408  8476,6737.307,91.725,361.564,356.781,0.0
55428.0,STARLINK-5064,PAYLOAD,2023-03-19 18:30:09,15.69935963,0.0003059,69.9985,317.329,246.8918,113.1956,6.3853e-05,7.475e-05,0.0,0 STARLINK-5064,1 55428U 23014AP  23078.77094883  .00007475  00000-0  63853-4 0  9992,2 55428  69.9985 317.3290 0003059 246.8918 113.1956 15.69935963  7595,6737.217,91.723,361.143,357.021,0.0
55428.0,STARLINK-5064,PAYLOAD,2023-03-20 03:40:41,15.69911984,0.0003559,69.9979,316.2529,273.3414,86.7374,3.9599e-05,4.549e-05,0.0,0 STARLINK-5064,1 55428U 23014AP  23079.15326202  .00004549  00000-0  39599-4 0  9997,2 55428  69.9979 316.2529 0003559 273.3414  86.7374 15.69911984  7655,6737.286,91.725,361.549,356.753,0.0
55428.0,STARLINK-5064,PAYLOAD,2023-03-20 18:58:13,15.69906303,0.0003356,69.9964,314.4616,266.8939,93.1872,4.3349e-05,4.999e-05,0.0,0 STARLINK-5064,1 55428U 23014AP  23079.79043706  .00004999  00000-0  43349-4 0  9999,2 55428  69.9964 314.4616 0003356 266.8939  93.1872 15.69906303  8699,6737.302,91.725,361.428,356.906,0.0
55428.0,STARLINK-5064,PAYLOAD,2023-03-21 01:05:13,15.69930498,0.000349,69.9984,313.7466,266.1808,93.8988,7.2599e-05,8.528e-05,0.0,0 STARLINK-5064,1 55428U 23014AP  23080.04529331  .00008528  00000-0  72599-4 0  9993,2 55428  69.9984 313.7466 0003490 266.1808  93.8988 15.69930498  7790,6737.233,91.724,361.449,356.747,0.0
55428.0,STARLINK-5064,PAYLOAD,2023-03-22 01:33:15,15.69925599,0.0002968,69.9965,310.8771,273.0184,87.0672,-9.8984e-06,-1.403e-05,0.0,0 STARLINK-5064,1 55428U 23014AP  23081.06476056 -.00001403  00000-0 -98984-5 0  9995,2 55428  69.9965 310.8771 0002968 273.0184  87.0672 15.69925599  7958,6737.247,91.724,361.111,357.112,0.0
55428.0,STARLINK-5064,PAYLOAD,2023-03-22 21:26:01,15.6994319,0.0003521,69.9975,308.5496,263.6713,96.4082,2.8785e-05,3.252e-05,0.0,0 STARLINK-5064,1 55428U 23014AP  23081.89307381  .00003252  00000-0  28785-4 0  9993,2 55428  69.9975 308.5496 0003521 263.6713  96.4082 15.69943190  9022,6737.197,91.723,361.434,356.689,0.0
55428.0,STARLINK-5064,PAYLOAD,2023-03-23 00:29:33,15.69911349,0.000287,69.9979,308.1926,263.9359,96.151,-3.0337e-05,-3.856e-05,0.0,0 STARLINK-5064,1 55428U 23014AP  23082.02052331 -.00003856  00000-0 -30337-4 0  9999,2 55428  69.9979 308.1926 0002870 263.9359  96.1510 15.69911349  8107,6737.288,91.725,361.086,357.219,0.0
55428.0,STARLINK-5064,PAYLOAD,2023-03-23 11:11:48,15.69914734,0.0002876,69.9973,306.9354,274.4711,85.6156,-7.1176e-06,-1.068e-05,0.0,0 STARLINK-5064,1 55428U 23014AP  23082.46653843 -.00001068  00000-0 -71176-5 0  9992,2 55428  69.9973 306.9354 0002876 274.4711  85.6156 15.69914734  8174,6737.278,91.725,361.081,357.205,0.0
55428.0,STARLINK-5064,PAYLOAD,2023-03-23 17:18:48,15.69924653,0.0002879,70.0002,306.2215,238.7686,121.3228,4.1883e-05,4.826e-05,0.0,0 STARLINK-5064,1 55428U 23014AP  23082.72139814  .00004826  00000-0  41883-4 0  9992,2 55428  70.0002 306.2215 0002879 238.7686 121.3228 15.69924653  8210,6737.25,91.724,361.054,357.175,0.0
55428.0,STARLINK-5064,PAYLOAD,2023-03-24 02:29:20,15.6991444,0.0003309,69.9964,305.1469,264.5416,95.5402,7.9002e-06,7.37e-06,0.0,0 STARLINK-5064,1 55428U 23014AP  23083.10370504  .00000737  00000-0  79002-5 0  9990,2 55428  69.9964 305.1469 0003309 264.5416  95.5402 15.69914440  8275,6737.279,91.725,361.373,356.914,0.0
55428.0,STARLINK-5064,PAYLOAD,2023-03-24 16:15:07,15.6990259,0.0003321,69.9991,303.5356,261.5026,98.5793,-3.4045e-05,-4.301e-05,0.0,0 STARLINK-5064,1 55428U 23014AP  23083.67716581 -.00004301  00000-0 -34045-4 0  9991,2 55428  69.9991 303.5356 0003321 261.5026  98.5793 15.69902590  8369,6737.313,91.725,361.415,356.94,0.0
55428.0,STARLINK-5064,PAYLOAD,2023-03-24 20:50:20,15.69944231,0.0003846,69.9978,302.9958,266.7314,93.3442,3.8533e-05,4.427e-05,0.0,0 STARLINK-5064,1 55428U 23014AP  23083.86829742  .00004427  00000-0  38533-4 0  9999,2 55428  69.9978 302.9958 0003846 266.7314  93.3442 15.69944231  8399,6737.194,91.723,361.65,356.467,0.0
55428.0,STARLINK-5064,PAYLOAD,2023-03-24 22:22:05,15.69945676,0.0003621,69.9977,302.8162,265.9177,94.1605,4.1698e-05,4.808e-05,0.0,0 STARLINK-5064,1 55428U 23014AP  23083.93201318  .00004808  00000-0  41698-4 0  9999,2 55428  69.9977 302.8162 0003621 265.9177  94.1605 15.69945676  9343,6737.189,91.723,361.494,356.615,0.0
55428.0,STARLINK-5064,PAYLOAD,2023-03-24 23:53:52,15.69904913,0.0002956,69.9982,302.6378,268.0356,92.0502,-3.8934e-05,-4.887e-05,0.0,0 STARLINK-5064,1 55428U 23014AP  23083.99574920 -.00004887  00000-0 -38934-4 0  9995,2 55428  69.9982 302.6378 0002956 268.0356  92.0502 15.69904913  8418,6737.306,91.725,361.163,357.179,0.0
55428.0,STARLINK-5064,PAYLOAD,2023-03-25 18:14:52,15.69951424,0.0002788,70.0012,300.49,256.9125,103.1759,6.4519e-05,7.56e-05,0.0,0 STARLINK-5064,1 55428U 23014AP  23084.76032956  .00007560  00000-0  64519-4 0  9996,2 55428  70.0012 300.4900 0002788 256.9125 103.1759 15.69951424  8535,6737.173,91.723,360.916,357.16,0.0
